NORAD_CAT_ID,OBJECT_NAME,OBJECT_TYPE,EPOCH,MEAN_MOTION,ECCENTRICITY,INCLINATION,RA_OF_ASC_NODE,ARG_OF_PERICENTER,MEAN_ANOMALY,BSTAR,MEAN_MOTION_DOT,MEAN_MOTION_DDOT,TLE_LINE0,TLE_LINE1,TLE_LINE2,SEMIMAJOR_AXIS,PERIOD,APOGEE,PERIGEE,DECAYED
52135.0,STARLINK-3729,PAYLOAD,2022-10-05 17:06:39,15.08841637,0.0002217,53.2201,284.9688,44.5162,315.6008,2.1992e-05,6.2e-07,0.0,0 STARLINK-3729,1 52135U 22029AZ  22278.71295959  .00000062  00000-0  21992-4 0  9994,2 52135  53.2201 284.9688 0002217  44.5162 315.6008 15.08841637 32089,6917.875,95.437,541.274,538.207,0.0
52135.0,STARLINK-3729,PAYLOAD,2022-10-06 10:35:54,15.08841363,0.0002061999999999,53.2202,281.7009,46.5515,313.5648,-2.2237e-05,-6.42e-06,0.0,0 STARLINK-3729,1 52135U 22029AZ  22279.44159960 -.00000642  00000-0 -22237-4 0  9995,2 52135  53.2202 281.7009 0002062  46.5515 313.5648 15.08841363 32199,6917.876,95.437,541.168,538.315,0.0
52135.0,STARLINK-3729,PAYLOAD,2022-10-06 16:57:27,15.08836518,0.0002061999999999,53.2193,280.5107,45.7051,314.411,-6.2788e-05,-1.287e-05,0.0,0 STARLINK-3729,1 52135U 22029AZ  22279.70656437 -.00001287  00000-0 -62788-4 0  9996,2 52135  53.2193 280.5107 0002062  45.7051 314.4110 15.08836518 32235,6917.891,95.438,541.183,538.33,0.0
52135.0,STARLINK-3729,PAYLOAD,2022-10-07 00:54:22,15.08841331,0.0002012,53.2188,279.0223,41.692,318.4225,9.1276e-05,1.165e-05,0.0,0 STARLINK-3729,1 52135U 22029AZ  22280.03775681  .00001165  00000-0  91276-4 0  9994,2 52135  53.2188 279.0223 0002012  41.6920 318.4225 15.08841331 32281,6917.876,95.437,541.133,538.349,0.0
52135.0,STARLINK-3729,PAYLOAD,2022-10-07 07:15:54,15.08848929,0.0002048,53.2188,277.8331,42.1704,317.9445,0.00014647,2.044e-05,0.0,0 STARLINK-3729,1 52135U 22029AZ  22280.30271105  .00002044  00000-0  14647-3 0  9999,2 52135  53.2188 277.8331 0002048  42.1704 317.9445 15.08848929 32325,6917.853,95.437,541.135,538.3009999999998,0.0
52135.0,STARLINK-3729,PAYLOAD,2022-10-07 10:26:41,15.08840457,0.0002020999999999,53.2186,277.2384,42.48,317.6348,6.9617e-05,8.2e-06,0.0,0 STARLINK-3729,1 52135U 22029AZ  22280.43519776  .00000820  00000-0  69617-4 0  9990,2 52135  53.2186 277.2384 0002021  42.4800 317.6348 15.08840457 32345,6917.879,95.438,541.1419999999998,538.346,0.0
52135.0,STARLINK-3729,PAYLOAD,2022-10-08 08:42:05,15.08834781,0.0002013,53.2185,273.0748,43.4308,316.6843,-1.4231e-05,-5.15e-06,0.0,0 STARLINK-3729,1 52135U 22029AZ  22281.36256562 -.00000515  00000-0 -14231-4 0  9999,2 52135  53.2185 273.0748 0002013  43.4308 316.6843 15.08834781 32484,6917.896,95.438,541.154,538.369,0.0
52135.0,STARLINK-3729,PAYLOAD,2022-10-08 16:39:01,15.08837528,0.0002024,53.2191,271.5894,46.529,313.5871,7.8267e-05,9.58e-06,0.0,0 STARLINK-3729,1 52135U 22029AZ  22281.69376259  .00000958  00000-0  78267-4 0  9999,2 52135  53.2191 271.5894 0002024  46.5290 313.5871 15.08837528 32537,6917.888000000001,95.438,541.153,538.3530000000002,0.0
52135.0,STARLINK-3729,PAYLOAD,2022-10-09 06:57:29,15.0884486,0.0002063,53.2193,268.9121,49.5798,310.5374,-8.5347e-06,-4.24e-06,0.0,0 STARLINK-3729,1 52135U 22029AZ  22282.28992208 -.00000424  00000-0 -85347-5 0  9991,2 52135  53.2193 268.9121 0002063  49.5798 310.5374 15.08844860 32623,6917.866,95.437,541.158,538.303,0.0
52135.0,STARLINK-3729,PAYLOAD,2022-10-09 11:43:38,15.08840567,0.0002036,53.219,268.0203,48.3709,311.7458,-3.595e-05,-8.599999999999999e-06,0.0,0 STARLINK-3729,1 52135U 22029AZ  22282.48864469 -.00000860  00000-0 -35950-4 0  9998,2 52135  53.2190 268.0203 0002036  48.3709 311.7458 15.08840567 32650,6917.879,95.438,541.1519999999998,538.335,0.0
52135.0,STARLINK-3729,PAYLOAD,2022-10-09 16:29:48,15.08839696,0.0002038,53.2189,267.1285,49.9223,310.1947,9.9265e-06,-1.3e-06,0.0,0 STARLINK-3729,1 52135U 22029AZ  22282.68736545 -.00000130  00000-0  99265-5 0  9992,2 52135  53.2189 267.1285 0002038  49.9223 310.1947 15.08839696 32688,6917.880999999999,95.438,541.156,538.336,0.0
52135.0,STARLINK-3729,PAYLOAD,2022-10-10 03:37:30,15.08836887,0.0001932,53.2192,265.0473,43.0674,317.0469,0.00011214,1.497e-05,0.0,0 STARLINK-3729,1 52135U 22029AZ  22283.15104448  .00001497  00000-0  11214-3 0  9998,2 52135  53.2192 265.0473 0001932  43.0674 317.0469 15.08836887 32757,6917.89,95.438,541.091,538.418,0.0
52135.0,STARLINK-3729,PAYLOAD,2022-10-10 08:23:39,15.0883957,0.000206,53.2187,264.1555,38.2135,321.9003,7.747e-05,9.45e-06,0.0,0 STARLINK-3729,1 52135U 22029AZ  22283.34976436  .00000945  00000-0  77470-4 0  9997,2 52135  53.2187 264.1555 0002060  38.2135 321.9003 15.08839570 32786,6917.882,95.438,541.172,538.322,0.0
52135.0,STARLINK-3729,PAYLOAD,2022-10-10 16:20:35,15.0883199,0.0002008999999999,53.2186,262.6687,43.3065,316.8085,4.5209e-05,4.31e-06,0.0,0 STARLINK-3729,1 52135U 22029AZ  22283.68097129  .00000431  00000-0  45209-4 0  9992,2 52135  53.2186 262.6687 0002009  43.3065 316.8085 15.08831990 32833,6917.905,95.438,541.16,538.38,0.0
52135.0,STARLINK-3729,PAYLOAD,2022-10-11 08:14:27,15.08827611,0.0002021999999999,53.2187,259.6946,46.0974,314.0185,-2.7891e-05,-7.32e-06,0.0,0 STARLINK-3729,1 52135U 22029AZ  22284.34337949 -.00000732  00000-0 -27891-4 0  9996,2 52135  53.2187 259.6946 0002022  46.0974 314.0185 15.08827611 32939,6917.918000000002,95.438,541.182,538.384,0.0
52135.0,STARLINK-3729,PAYLOAD,2022-10-12 04:54:28,15.08837842,0.0001571999999999,53.2184,255.8282,46.5056,313.6067,7.3978e-05,8.89e-06,0.0,0 STARLINK-3729,1 52135U 22029AZ  22285.20449867  .00000889  00000-0  73978-4 0  9993,2 52135  53.2184 255.8282 0001572  46.5056 313.6067 15.08837842 33068,6917.887,95.438,540.839,538.664,0.0
52135.0,STARLINK-3729,PAYLOAD,2022-10-12 08:05:12,15.0886774,0.0001438,53.2183,255.233,41.5801,318.53,0.0003184,4.787e-05,0.0,0 STARLINK-3729,1 52135U 22029AZ  22285.33695080  .00004787  00000-0  31840-3 0  9999,2 52135  53.2183 255.2330 0001438  41.5801 318.5300 15.08867740 33085,6917.795999999999,95.436,540.655,538.6659999999998,0.0
52135.0,STARLINK-3729,PAYLOAD,2022-10-13 04:45:15,15.08828545,0.0001781,53.2187,251.3682,40.6581,319.4544,1.4086e-05,-6.4e-07,0.0,0 STARLINK-3729,1 52135U 22029AZ  22286.19809750 -.00000064  00000-0  14086-4 0  9994,2 52135  53.2187 251.3682 0001781  40.6581 319.4544 15.08828545 33217,6917.915,95.438,541.012,538.548,0.0
52135.0,STARLINK-3729,PAYLOAD,2022-10-13 07:56:01,15.08831889,0.0001757,53.2188,250.7735,41.8796,318.233,3.5541e-05,2.77e-06,0.0,0 STARLINK-3729,1 52135U 22029AZ  22286.33057519  .00000277  00000-0  35541-4 0  9992,2 52135  53.2188 250.7735 0001757  41.8796 318.2330 15.08831889 33231,6917.905,95.438,540.986,538.555,0.0
52135.0,STARLINK-3729,PAYLOAD,2022-10-14 04:36:02,15.08842861,0.0001633,53.2183,246.9075,41.1864,318.9251,1.5561e-05,-4e-07,0.0,0 STARLINK-3729,1 52135U 22029AZ  22287.19169292 -.00000040  00000-0  15561-4 0  9998,2 52135  53.2183 246.9075 0001633  41.1864 318.9251 15.08842861 33367,6917.871999999999,95.437,540.866,538.607,0.0
52135.0,STARLINK-3729,PAYLOAD,2022-10-14 07:46:48,15.08844971,0.0001629999999999,53.218,246.312,39.7976,320.3136,2.264300000000001e-05,7.2e-07,0.0,0 STARLINK-3729,1 52135U 22029AZ  22287.32417076  .00000072  00000-0  22643-4 0  9992,2 52135  53.2180 246.3120 0001630  39.7976 320.3136 15.08844971 33388,6917.865,95.437,540.8580000000002,538.6030000000002,0.0
52135.0,STARLINK-3729,PAYLOAD,2022-10-15 07:37:35,15.08841583,0.0001956999999999,53.22,241.853,43.567,316.5476,1.0472e-05,-1.22e-06,0.0,0 STARLINK-3729,1 52135U 22029AZ  22288.31776909 -.00000122  00000-0  10472-4 0  9999,2 52135  53.2200 241.8530 0001957  43.5670 316.5476 15.08841583 33539,6917.876,95.437,541.094,538.387,0.0
52135.0,STARLINK-3729,PAYLOAD,2022-10-15 23:31:25,15.08848798,0.0001783,53.2192,238.8799,49.6366,310.4782,0.00014766,2.063e-05,0.0,0 STARLINK-3729,1 52135U 22029AZ  22288.98015792  .00002063  00000-0  14766-3 0  9992,2 52135  53.2192 238.8799 0001783  49.6366 310.4782 15.08848798 33637,6917.853,95.437,540.952,538.485,0.0
52135.0,STARLINK-3729,PAYLOAD,2022-10-16 05:52:58,15.08841267,0.0001749,53.221,237.6914,44.0789,316.0342,9.0178e-05,1.147e-05,0.0,0 STARLINK-3729,1 52135U 22029AZ  22289.24512451  .00001147  00000-0  90178-4 0  9990,2 52135  53.2210 237.6914 0001749  44.0789 316.0342 15.08841267 33676,6917.877,95.437,540.951,538.5319999999998,0.0
52135.0,STARLINK-3729,PAYLOAD,2022-10-16 13:49:56,15.08819293,0.0003486,53.2205,236.2042,63.1837,296.9512,-0.00013883,-2.497e-05,0.0,0 STARLINK-3729,1 52135U 22029AZ  22289.57635018 -.00002497  00000-0 -13883-3 0  9999,2 52135  53.2205 236.2042 0003486  63.1837 296.9512 15.08819293 33728,6917.944,95.439,542.22,537.3969999999998,0.0
52135.0,STARLINK-3729,PAYLOAD,2022-10-16 20:11:28,15.08821255,0.0001291999999999,53.2203,235.0134,47.9006,312.2096,-3.8165e-05,-8.95e-06,0.0,0 STARLINK-3729,1 52135U 22029AZ  22289.84130329 -.00000895  00000-0 -38165-4 0  9995,2 52135  53.2203 235.0134 0001292  47.9006 312.2096 15.08821255 33760,6917.938,95.439,540.696,538.909,0.0
52135.0,STARLINK-3729,PAYLOAD,2022-10-17 00:57:37,15.0883837,0.0001612,53.2194,234.1228,48.7273,311.3858,2.4967e-05,1.09e-06,0.0,0 STARLINK-3729,1 52135U 22029AZ  22290.04001307  .00000109  00000-0  24967-4 0  9993,2 52135  53.2194 234.1228 0001612  48.7273 311.3858 15.08838370 33799,6917.885,95.438,540.866,538.635,0.0
52135.0,STARLINK-3729,PAYLOAD,2022-10-18 02:23:47,15.08840148,0.0001672,53.2193,229.3641,49.8548,310.259,5.0743e-05,5.2e-06,0.0,0 STARLINK-3729,1 52135U 22029AZ  22291.09984985  .00000520  00000-0  50743-4 0  9999,2 52135  53.2193 229.3641 0001672  49.8548 310.2590 15.08840148 33951,6917.88,95.438,540.9019999999998,538.5880000000002,0.0
52135.0,STARLINK-3729,PAYLOAD,2022-10-18 05:34:33,15.08843887,0.000171,53.2193,228.7692,50.3082,309.8061,8.1053e-05,1.002e-05,0.0,0 STARLINK-3729,1 52135U 22029AZ  22291.23232661  .00001002  00000-0  81053-4 0  9996,2 52135  53.2193 228.7692 0001710  50.3082 309.8061 15.08843887 33975,6917.869000000002,95.437,540.9159999999998,538.5509999999998,0.0
